{
    "links": {
        "self": "http://www.neowsapp.com/rest/v1/neo/3672908?api_key=iIulBulltgU6a56xZRHN4H3l9WmuAYTsLGpBGhQ2"
    },
    "id": "3672908",
    "neo_reference_id": "3672908",
    "name": "(2014 KR76)",
    "designation": "2014 KR76",
    "nasa_jpl_url": "http://ssd.jpl.nasa.gov/sbdb.cgi?sstr=3672908",
    "absolute_magnitude_h": 20.8,
    "estimated_diameter": {
        "kilometers": {
            "estimated_diameter_min": 0.1838886721,
            "estimated_diameter_max": 0.411187571
        },
        "meters": {
            "estimated_diameter_min": 183.8886720703,
            "estimated_diameter_max": 411.1875710413
        },
        "miles": {
            "estimated_diameter_min": 0.1142630881,
            "estimated_diameter_max": 0.2555000322
        },
        "feet": {
            "estimated_diameter_min": 603.309310875,
            "estimated_diameter_max": 1349.040630575
        }
    },
    "is_potentially_hazardous_asteroid": false,
    "close_approach_data": [
        {
            "close_approach_date": "1983-03-27",
            "close_approach_date_full": "1983-Mar-27 06:18",
            "epoch_date_close_approach": 417593880000,
            "relative_velocity": {
                "kilometers_per_second": "14.7070597992",
                "kilometers_per_hour": "52945.4152770984",
                "miles_per_hour": "32898.2220648171"
            },
            "miss_distance": {
                "astronomical": "0.0537881495",
                "lunar": "20.9235901555",
                "kilometers": "8046592.596441565",
                "miles": "4999920.790020997"
            },
            "orbiting_body": "Mars"
        },
        {
            "close_approach_date": "1996-10-14",
            "close_approach_date_full": "1996-Oct-14 15:13",
            "epoch_date_close_approach": 845305980000,
            "relative_velocity": {
                "kilometers_per_second": "15.1954951021",
                "kilometers_per_hour": "54703.7823675697",
                "miles_per_hour": "33990.8029938935"
            },
            "miss_distance": {
                "astronomical": "0.4609997363",
                "lunar": "179.3288974207",
                "kilometers": "68964578.621041681",
                "miles": "42852602.0535539578"
            },
            "orbiting_body": "Earth"
        },
        {
            "close_approach_date": "2005-10-07",
            "close_approach_date_full": "2005-Oct-07 07:13",
            "epoch_date_close_approach": 1128669180000,
            "relative_velocity": {
                "kilometers_per_second": "16.266439942",
                "kilometers_per_hour": "58559.183791231",
                "miles_per_hour": "36386.399506279"
            },
            "miss_distance": {
                "astronomical": "0.4570391085",
                "lunar": "177.7882132065",
                "kilometers": "68372077.138298895",
                "miles": "42484438.704138951"
            },
            "orbiting_body": "Earth"
        },
        {
            "close_approach_date": "2030-10-16",
            "close_approach_date_full": "2030-Oct-16 23:32",
            "epoch_date_close_approach": 1918423920000,
            "relative_velocity": {
                "kilometers_per_second": "15.1398348872",
                "kilometers_per_hour": "54503.4055938588",
                "miles_per_hour": "33866.2966591397"
            },
            "miss_distance": {
                "astronomical": "0.4837839855",
                "lunar": "188.1919703595",
                "kilometers": "72373053.770910885",
                "miles": "44970530.302044813"
            },
            "orbiting_body": "Earth"
        },
        {
            "close_approach_date": "2039-10-09",
            "close_approach_date_full": "2039-Oct-09 04:55",
            "epoch_date_close_approach": 2201748900000,
            "relative_velocity": {
                "kilometers_per_second": "15.9146187519",
                "kilometers_per_hour": "57292.6275066665",
                "miles_per_hour": "35599.4106860173"
            },
            "miss_distance": {
                "astronomical": "0.4395159263",
                "lunar": "170.9716953307",
                "kilometers": "65750646.405556981",
                "miles": "40855557.1790530978"
            },
            "orbiting_body": "Earth"
        }
    ],
    "orbital_data": {
        "orbit_id": "12",
        "orbit_determination_date": "2017-04-06 08:40:17",
        "first_observation_date": "2014-05-27",
        "last_observation_date": "2014-08-01",
        "data_arc_in_days": 66,
        "observations_used": 28,
        "orbit_uncertainty": "7",
        "minimum_orbit_intersection": ".43204",
        "jupiter_tisserand_invariant": "3.972",
        "epoch_osculation": "2459000.5",
        "eccentricity": ".2756573865736794",
        "semi_major_axis": "1.725164062397615",
        "inclination": "30.26945607813952",
        "ascending_node_longitude": "214.7395499721591",
        "orbital_period": "827.6448762251323",
        "perihelion_distance": "1.249609845546257",
        "perihelion_argument": "104.4103854793619",
        "aphelion_distance": "2.200718279248974",
        "perihelion_time": "2459383.230612040459",
        "mean_anomaly": "193.5239855975545",
        "mean_motion": ".4349691641201853",
        "equinox": "J2000",
        "orbit_class": {
            "orbit_class_type": "AMO",
            "orbit_class_description": "Near-Earth asteroid orbits similar to that of 1221 Amor",
            "orbit_class_range": "1.017 AU < q (perihelion) < 1.3 AU"
        }
    },
    "is_sentry_object": false
}